[{"OBJECT_NAME":"JILIN-1 05","OBJECT_ID":"2017-074B","EPOCH":"2026-03-09T21:56:30.612480","MEAN_MOTION":15.3245271,"ECCENTRICITY":0.00045948,"INCLINATION":97.4781,"RA_OF_ASC_NODE":173.8936,"ARG_OF_PERICENTER":206.4038,"MEAN_ANOMALY":153.6971,"EPHEMERIS_TYPE":0,"CLASSIFICATION_TYPE":"U","NORAD_CAT_ID":43023,"ELEMENT_SET_NO":999,"REV_AT_EPOCH":45879,"BSTAR":0.00026108793,"MEAN_MOTION_DOT":8.104e-5,"MEAN_MOTION_DDOT":0},{"OBJECT_NAME":"STARLINK-35384","OBJECT_ID":"2025-224C","EPOCH":"2026-03-09T02:31:41.882304","MEAN_MOTION":15.30204517,"ECCENTRICITY":8.099e-5,"INCLINATION":53.1627,"RA_OF_ASC_NODE":14.1515,"ARG_OF_PERICENTER":90.1051,"MEAN_ANOMALY":270.0043,"EPHEMERIS_TYPE":0,"CLASSIFICATION_TYPE":"U","NORAD_CAT_ID":65884,"ELEMENT_SET_NO":999,"REV_AT_EPOCH":2473,"BSTAR":0.0012035157,"MEAN_MOTION_DOT":0.00035461,"MEAN_MOTION_DDOT":0}]
